0 DELTA 1 DEB
1 21275U 75052L   13281.97517883  .00000037  00000-0  12768-3 0  3967
2 21275 100.0855 062.6561 0034050 042.8578 078.7787 13.51131832106290
0 DELTA 1 DEB
1 21275U 75052L   13287.00849676  .00000019  00000-0  10005-3 0  3989
2 21275 100.0865 067.7590 0033912 030.5705 081.1597 13.51132852106976
0 DELTA 1 DEB
1 21275U 75052L   13289.36098750  .00000025  00000-0  10934-3 0  3998
2 21275 100.0870 070.1443 0033848 024.7694 003.8898 13.51133136107294
0 DELTA 1 DEB
1 21275U 75052L   13292.33014700  .00000060  00000-0  16399-3 0  4005
2 21275 100.0874 073.1550 0033776 017.4481 046.1584 13.51133609107694
0 DELTA 1 DEB
1 21275U 75052L   13294.86098398  .00000080  00000-0  19458-3 0  4012
2 21275 100.0874 075.7214 0033712 011.2180 116.3786 13.51134204108032
